{
  "type": "FeatureCollection",
  "features": [
    {
      "type": "Feature",
      "properties": {
        "norad_id": 36385,
        "name": "COSMOS 2251 DEB",
        "group": "cosmos-2251-debris",
        "lat": 17.760218574834337,
        "lon": 138.95920883295705,
        "alt_km": 622.0069136547536,
        "timestamp": "2025-12-23T09:49:07.480163+00:00",
        "meta_object_name": "COSMOS 2251 DEB",
        "meta_object_id": "1993-036AZN",
        "meta_epoch": "2025-12-20T19:47:03.334560",
        "meta_mean_motion": 14.72696016,
        "meta_eccentricity": 0.01415357,
        "meta_inclination": 73.9698,
        "meta_ra_of_asc_node": 138.7285,
        "meta_arg_of_pericenter": 311.3318,
        "meta_mean_anomaly": 47.5743,
        "meta_ephemeris_type": 0,
        "meta_classification_type": "U",
        "meta_norad_cat_id": 36385,
        "meta_element_set_no": 999,
        "meta_rev_at_epoch": 85221,
        "meta_bstar": 0.0008039038,
        "meta_mean_motion_dot": 5.978e-05,
        "meta_mean_motion_ddot": 0,
        "tle_line1": "1 36385U 93036AZN 25354.82434415  .00005978  00000+0  80390-3 0  9997",
        "tle_line2": "2 36385  73.9698 138.7285 0141535 311.3318  47.5743 14.72696016852212"
      },
      "geometry": {
        "type": "Point",
        "coordinates": [
          138.95920883295705,
          17.760218574834337
        ]
      }
    },
    {
      "type": "Feature",
      "properties": {
        "norad_id": 36420,
        "name": "COSMOS 2251 DEB",
        "group": "cosmos-2251-debris",
        "lat": 12.671433452040677,
        "lon": -100.4418299556478,
        "alt_km": 758.3527532600056,
        "timestamp": "2025-12-23T09:49:07.480173+00:00",
        "meta_object_name": "COSMOS 2251 DEB",
        "meta_object_id": "1993-036AZT",
        "meta_epoch": "2025-12-21T02:55:38.256384",
        "meta_mean_motion": 14.36907864,
        "meta_eccentricity": 0.00184562,
        "meta_inclination": 74.0376,
        "meta_ra_of_asc_node": 260.0713,
        "meta_arg_of_pericenter": 346.0954,
        "meta_mean_anomaly": 80.7548,
        "meta_ephemeris_type": 0,
        "meta_classification_type": "U",
        "meta_norad_cat_id": 36420,
        "meta_element_set_no": 999,
        "meta_rev_at_epoch": 85157,
        "meta_bstar": 0.00010545411,
        "meta_mean_motion_dot": 2.86e-06,
        "meta_mean_motion_ddot": 0,
        "tle_line1": "1 36420U 93036AZT 25355.12197056  .00000286  00000+0  10545-3 0  9990",
        "tle_line2": "2 36420  74.0376 260.0713 0018456 346.0954  80.7548 14.36907864851574"
      },
      "geometry": {
        "type": "Point",
        "coordinates": [
          -100.4418299556478,
          12.671433452040677
        ]
      }
    },
    {
      "type": "Feature",
      "properties": {
        "norad_id": 36430,
        "name": "COSMOS 2251 DEB",
        "group": "cosmos-2251-debris",
        "lat": 42.68439852245568,
        "lon": 104.5058514042216,
        "alt_km": 863.4480735563748,
        "timestamp": "2025-12-23T09:49:07.480184+00:00",
        "meta_object_name": "COSMOS 2251 DEB",
        "meta_object_id": "1993-036BAD",
        "meta_epoch": "2025-12-17T14:02:08.838528",
        "meta_mean_motion": 14.27804633,
        "meta_eccentricity": 0.00972961,
        "meta_inclination": 74.0048,
        "meta_ra_of_asc_node": 99.7344,
        "meta_arg_of_pericenter": 248.7934,
        "meta_mean_anomaly": 110.2799,
        "meta_ephemeris_type": 0,
        "meta_classification_type": "U",
        "meta_norad_cat_id": 36430,
        "meta_element_set_no": 999,
        "meta_rev_at_epoch": 64626,
        "meta_bstar": 0.00041842357,
        "meta_mean_motion_dot": 1.061e-05,
        "meta_mean_motion_ddot": 0,
        "tle_line1": "1 36430U 93036BAD 25351.58482452  .00001061  00000+0  41842-3 0  9990",
        "tle_line2": "2 36430  74.0048  99.7344 0097296 248.7934 110.2799 14.27804633646268"
      },
      "geometry": {
        "type": "Point",
        "coordinates": [
          104.5058514042216,
          42.68439852245568
        ]
      }
    },
    {
      "type": "Feature",
      "properties": {
        "norad_id": 36437,
        "name": "COSMOS 2251 DEB",
        "group": "cosmos-2251-debris",
        "lat": -70.82667237012679,
        "lon": -110.8996465633455,
        "alt_km": 649.6281811127383,
        "timestamp": "2025-12-23T09:49:07.480194+00:00",
        "meta_object_name": "COSMOS 2251 DEB",
        "meta_object_id": "1993-036BAL",
        "meta_epoch": "2025-12-20T18:36:38.364192",
        "meta_mean_motion": 14.70810572,
        "meta_eccentricity": 0.00231641,
        "meta_inclination": 73.942,
        "meta_ra_of_asc_node": 18.3096,
        "meta_arg_of_pericenter": 249.5495,
        "meta_mean_anomaly": 110.3188,
        "meta_ephemeris_type": 0,
        "meta_classification_type": "U",
        "meta_norad_cat_id": 36437,
        "meta_element_set_no": 999,
        "meta_rev_at_epoch": 66169,
        "meta_bstar": 0.00075908188,
        "meta_mean_motion_dot": 4.626e-05,
        "meta_mean_motion_ddot": 0,
        "tle_line1": "1 36437U 93036BAL 25354.77544403  .00004626  00000+0  75908-3 0  9996",
        "tle_line2": "2 36437  73.9420  18.3096 0023164 249.5495 110.3188 14.70810572661696"
      },
      "geometry": {
        "type": "Point",
        "coordinates": [
          -110.8996465633455,
          -70.82667237012679
        ]
      }
    },
    {
      "type": "Feature",
      "properties": {
        "norad_id": 36439,
        "name": "COSMOS 2251 DEB",
        "group": "cosmos-2251-debris",
        "lat": 28.656236117356837,
        "lon": -169.3472594867,
        "alt_km": 1377.9720961941748,
        "timestamp": "2025-12-23T09:49:07.480204+00:00",
        "meta_object_name": "COSMOS 2251 DEB",
        "meta_object_id": "1993-036BAN",
        "meta_epoch": "2025-12-16T11:25:24.463776",
        "meta_mean_motion": 13.47804354,
        "meta_eccentricity": 0.04280619,
        "meta_inclination": 73.9685,
        "meta_ra_of_asc_node": 30.7531,
        "meta_arg_of_pericenter": 1.8523,
        "meta_mean_anomaly": 358.4044,
        "meta_ephemeris_type": 0,
        "meta_classification_type": "U",
        "meta_norad_cat_id": 36439,
        "meta_element_set_no": 999,
        "meta_rev_at_epoch": 58663,
        "meta_bstar": 0.0011092098,
        "meta_mean_motion_dot": 1.175e-05,
        "meta_mean_motion_ddot": 0,
        "tle_line1": "1 36439U 93036BAN 25350.47597759  .00001175  00000+0  11092-2 0  9992",
        "tle_line2": "2 36439  73.9685  30.7531 0428061   1.8523 358.4044 13.47804354586639"
      },
      "geometry": {
        "type": "Point",
        "coordinates": [
          -169.3472594867,
          28.656236117356837
        ]
      }
    },
    {
      "type": "Feature",
      "properties": {
        "norad_id": 36441,
        "name": "COSMOS 2251 DEB",
        "group": "cosmos-2251-debris",
        "lat": -54.0736740998453,
        "lon": -56.029518440391556,
        "alt_km": 590.9645399761139,
        "timestamp": "2025-12-23T09:49:07.480214+00:00",
        "meta_object_name": "COSMOS 2251 DEB",
        "meta_object_id": "1993-036BAQ",
        "meta_epoch": "2025-12-18T05:47:29.908032",
        "meta_mean_motion": 15.06846048,
        "meta_eccentricity": 0.01082047,
        "meta_inclination": 73.8354,
        "meta_ra_of_asc_node": 338.3111,
        "meta_arg_of_pericenter": 76.0854,
        "meta_mean_anomaly": 285.2342,
        "meta_ephemeris_type": 0,
        "meta_classification_type": "U",
        "meta_norad_cat_id": 36441,
        "meta_element_set_no": 999,
        "meta_rev_at_epoch": 87048,
        "meta_bstar": 0.0004365334,
        "meta_mean_motion_dot": 7.404e-05,
        "meta_mean_motion_ddot": 0,
        "tle_line1": "1 36441U 93036BAQ 25352.24131838  .00007404  00000+0  43653-3 0  9994",
        "tle_line2": "2 36441  73.8354 338.3111 0108204  76.0854 285.2342 15.06846048870480"
      },
      "geometry": {
        "type": "Point",
        "coordinates": [
          -56.029518440391556,
          -54.0736740998453
        ]
      }
    },
    {
      "type": "Feature",
      "properties": {
        "norad_id": 36442,
        "name": "COSMOS 2251 DEB",
        "group": "cosmos-2251-debris",
        "lat": -44.27477656599948,
        "lon": 0.07346031922213454,
        "alt_km": 467.7229504161314,
        "timestamp": "2025-12-23T09:49:07.480224+00:00",
        "meta_object_name": "COSMOS 2251 DEB",
        "meta_object_id": "1993-036BAR",
        "meta_epoch": "2025-12-21T18:51:31.867200",
        "meta_mean_motion": 15.32486394,
        "meta_eccentricity": 0.00080169,
        "meta_inclination": 73.9482,
        "meta_ra_of_asc_node": 19.8637,
        "meta_arg_of_pericenter": 316.0651,
        "meta_mean_anomaly": 43.9914,
        "meta_ephemeris_type": 0,
        "meta_classification_type": "U",
        "meta_norad_cat_id": 36442,
        "meta_element_set_no": 999,
        "meta_rev_at_epoch": 86054,
        "meta_bstar": 0.0050536247,
        "meta_mean_motion_dot": 0.00162161,
        "meta_mean_motion_ddot": 0,
        "tle_line1": "1 36442U 93036BAR 25355.78578550  .00162161  00000+0  50536-2 0  9992",
        "tle_line2": "2 36442  73.9482  19.8637 0008016 316.0651  43.9914 15.32486394860543"
      },
      "geometry": {
        "type": "Point",
        "coordinates": [
          0.07346031922213454,
          -44.27477656599948
        ]
      }
    }
  ]
}